{"fetched_at":"2026-03-29T12:54:09Z","count":15711,"tles":[{"name":"STARLINK-32888","line1":"1 62966U 25029U   26087.88802450  .00024396  00000+0  83281-3 0  9993","line2":"2 62966  53.1594 143.5262 0002036  90.5595 269.5639 15.30210645 64259","category":"Starlink"}]}