{
  "norad_id": 62966,
  "name": "STARLINK-32888",
  "history": [
    {
      "epoch": "2026-03-28T21:18:45.316800",
      "apogee_km": 476.578621562493,
      "perigee_km": 473.78794954221576,
      "latitude_deg": 49.242714656555435,
      "longitude_deg": -158.1496479997877,
      "semi_major_axis_km": 6853.320285552354,
      "eccentricity": 0.0002036,
      "inclination_deg": 53.1594,
      "raan_deg": 143.5262,
      "arg_perigee_deg": 90.5595,
      "mean_anomaly_deg": 269.5639,
      "mean_motion_rev_day": 15.30210645
    }
  ]
}